[
    {
        "Altitude(m)": 604221.2206492802,
        "Argument of Periapsis(deg)": 0.0,
        "Eccentricity": 0.0,
        "Inclination(deg)": 60.0,
        "Latitude(deg)": 14.117338933349888,
        "Longitude(deg)": 153.3341709497294,
        "Mean Anomaly(deg)": 16.363599999999984,
        "RAAN(deg)": 245.0,
        "Satellite Name": "Test1 1079",
        "Satellite Number": 1079,
        "Semi-Major Axis(m)": 6980739.136638005,
        "Time(s)": 0
    },
    {
        "Altitude(m)": 604235.3620632912,
        "Argument of Periapsis(deg)": 0.00010418945913296404,
        "Eccentricity": 0.0,
        "Inclination(deg)": 60.0,
        "Latitude(deg)": 14.651735343645454,
        "Longitude(deg)": 153.62261869264051,
        "Mean Anomaly(deg)": 16.983706145461838,
        "RAAN(deg)": 244.99957995086027,
        "Satellite Name": "Test1 1079",
        "Satellite Number": 1079,
        "Semi-Major Axis(m)": 6980739.136638005,
        "Time(s)": 10
    }
]